[
  {
    "OBJECT_NAME": "STARLINK-33922",
    "OBJECT_ID": "25087B",
    "EPOCH": "2025-11-11T06:39:41.739552",
    "MEAN_MOTION": 15.30239232,
    "ECCENTRICITY": 7.53e-05,
    "INCLINATION": 53.1592,
    "RA_OF_ASC_NODE": 49.3272,
    "ARG_OF_PERICENTER": 35.0563,
    "MEAN_ANOMALY": 325.0488,
    "EPHEMERIS_TYPE": 0,
    "CLASSIFICATION_TYPE": "U",
    "NORAD_CAT_ID": 63698,
    "ELEMENT_SET_NO": 999,
    "REV_AT_EPOCH": 3106,
    "BSTAR": 0.0017408000000000002,
    "MEAN_MOTION_DOT": 0.0005162,
    "MEAN_MOTION_DDOT": 0.0,
    "TLE_LINE1": "1 63698U 25087B   25315.27756643  .00051620  00000+0  17408-2 0  9995",
    "TLE_LINE2": "2 63698  53.1592  49.3272 0000753  35.0563 325.0488 15.30239232 31063",
    "COMMENT": "Grouped by shell and plane from TLE"
  },
  {
    "OBJECT_NAME": "STARLINK-33919",
    "OBJECT_ID": "25087C",
    "EPOCH": "2025-11-11T06:26:10.652640",
    "MEAN_MOTION": 15.30234547,
    "ECCENTRICITY": 0.000193,
    "INCLINATION": 53.1607,
    "RA_OF_ASC_NODE": 49.9772,
    "ARG_OF_PERICENTER": 85.9559,
    "MEAN_ANOMALY": 274.1663,
    "EPHEMERIS_TYPE": 0,
    "CLASSIFICATION_TYPE": "U",
    "NORAD_CAT_ID": 63699,
    "ELEMENT_SET_NO": 999,
    "REV_AT_EPOCH": 3106,
    "BSTAR": 0.0016526,
    "MEAN_MOTION_DOT": 0.00048963,
    "MEAN_MOTION_DDOT": 0.0,
    "TLE_LINE1": "1 63699U 25087C   25315.26817885  .00048963  00000+0  16526-2 0  9997",
    "TLE_LINE2": "2 63699  53.1607  49.9772 0001930  85.9559 274.1663 15.30234547 31062",
    "COMMENT": "Grouped by shell and plane from TLE"
  },
  {
    "OBJECT_NAME": "STARLINK-33908",
    "OBJECT_ID": "25087D",
    "EPOCH": "2025-11-11T07:03:58.952448",
    "MEAN_MOTION": 15.30293823,
    "ECCENTRICITY": 4.83e-05,
    "INCLINATION": 53.1577,
    "RA_OF_ASC_NODE": 49.4309,
    "ARG_OF_PERICENTER": 62.3975,
    "MEAN_ANOMALY": 297.7074,
    "EPHEMERIS_TYPE": 0,
    "CLASSIFICATION_TYPE": "U",
    "NORAD_CAT_ID": 63700,
    "ELEMENT_SET_NO": 999,
    "REV_AT_EPOCH": 3107,
    "BSTAR": 0.0020765000000000002,
    "MEAN_MOTION_DOT": 0.00061834,
    "MEAN_MOTION_DDOT": 0.0,
    "TLE_LINE1": "1 63700U 25087D   25315.29443232  .00061834  00000+0  20765-2 0  9996",
    "TLE_LINE2": "2 63700  53.1577  49.4309 0000483  62.3975 297.7074 15.30293823 31075",
    "COMMENT": "Grouped by shell and plane from TLE"
  },
  {
    "OBJECT_NAME": "STARLINK-33950",
    "OBJECT_ID": "25087E",
    "EPOCH": "2025-11-11T05:57:18.514080",
    "MEAN_MOTION": 15.30234838,
    "ECCENTRICITY": 0.000167,
    "INCLINATION": 53.1613,
    "RA_OF_ASC_NODE": 49.8532,
    "ARG_OF_PERICENTER": 104.494,
    "MEAN_ANOMALY": 255.6246,
    "EPHEMERIS_TYPE": 0,
    "CLASSIFICATION_TYPE": "U",
    "NORAD_CAT_ID": 63701,
    "ELEMENT_SET_NO": 999,
    "REV_AT_EPOCH": 3106,
    "BSTAR": 0.0014582,
    "MEAN_MOTION_DOT": 0.00043126,
    "MEAN_MOTION_DDOT": 0.0,
    "TLE_LINE1": "1 63701U 25087E   25315.24813095  .00043126  00000+0  14582-2 0  9994",
    "TLE_LINE2": "2 63701  53.1613  49.8532 0001670 104.4940 255.6246 15.30234838 31062",
    "COMMENT": "Grouped by shell and plane from TLE"
  },
  {
    "OBJECT_NAME": "STARLINK-33939",
    "OBJECT_ID": "25087F",
    "EPOCH": "2025-11-11T05:52:45.003648",
    "MEAN_MOTION": 15.30231832,
    "ECCENTRICITY": 0.00019,
    "INCLINATION": 53.1599,
    "RA_OF_ASC_NODE": 49.8354,
    "ARG_OF_PERICENTER": 74.2847,
    "MEAN_ANOMALY": 285.8363,
    "EPHEMERIS_TYPE": 0,
    "CLASSIFICATION_TYPE": "U",
    "NORAD_CAT_ID": 63702,
    "ELEMENT_SET_NO": 999,
    "REV_AT_EPOCH": 3106,
    "BSTAR": 0.0014248,
    "MEAN_MOTION_DOT": 0.00042122,
    "MEAN_MOTION_DDOT": 0.0,
    "TLE_LINE1": "1 63702U 25087F   25315.24496532  .00042122  00000+0  14248-2 0  9992",
    "TLE_LINE2": "2 63702  53.1599  49.8354 0001900  74.2847 285.8363 15.30231832 31060",
    "COMMENT": "Grouped by shell and plane from TLE"
  },
  {
    "OBJECT_NAME": "STARLINK-33868",
    "OBJECT_ID": "25087G",
    "EPOCH": "2025-11-11T07:10:05.062944",
    "MEAN_MOTION": 15.30228108,
    "ECCENTRICITY": 0.0001383,
    "INCLINATION": 53.1593,
    "RA_OF_ASC_NODE": 49.4557,
    "ARG_OF_PERICENTER": 80.5359,
    "MEAN_ANOMALY": 279.5798,
    "EPHEMERIS_TYPE": 0,
    "CLASSIFICATION_TYPE": "U",
    "NORAD_CAT_ID": 63703,
    "ELEMENT_SET_NO": 999,
    "REV_AT_EPOCH": 3107,
    "BSTAR": 0.0011537000000000001,
    "MEAN_MOTION_DOT": 0.00033998,
    "MEAN_MOTION_DDOT": 0.0,
    "TLE_LINE1": "1 63703U 25087G   25315.29866971  .00033998  00000+0  11537-2 0  9995",
    "TLE_LINE2": "2 63703  53.1593  49.4557 0001383  80.5359 279.5798 15.30228108 31074",
    "COMMENT": "Grouped by shell and plane from TLE"
  },
  {
    "OBJECT_NAME": "STARLINK-33937",
    "OBJECT_ID": "25087H",
    "EPOCH": "2025-11-11T06:35:07.953504",
    "MEAN_MOTION": 15.30229266,
    "ECCENTRICITY": 0.0001359,
    "INCLINATION": 53.1594,
    "RA_OF_ASC_NODE": 49.3033,
    "ARG_OF_PERICENTER": 77.7741,
    "MEAN_ANOMALY": 282.3412,
    "EPHEMERIS_TYPE": 0,
    "CLASSIFICATION_TYPE": "U",
    "NORAD_CAT_ID": 63704,
    "ELEMENT_SET_NO": 999,
    "REV_AT_EPOCH": 3107,
    "BSTAR": 0.0012409,
    "MEAN_MOTION_DOT": 0.00036607,
    "MEAN_MOTION_DDOT": 0.0,
    "TLE_LINE1": "1 63704U 25087H   25315.27439761  .00036607  00000+0  12409-2 0  9996",
    "TLE_LINE2": "2 63704  53.1594  49.3033 0001359  77.7741 282.3412 15.30229266 31071",
    "COMMENT": "Grouped by shell and plane from TLE"
  },
  {
    "OBJECT_NAME": "STARLINK-33848",
    "OBJECT_ID": "25087J",
    "EPOCH": "2025-11-11T06:51:51.013440",
    "MEAN_MOTION": 15.30236593,
    "ECCENTRICITY": 0.0001031,
    "INCLINATION": 53.1582,
    "RA_OF_ASC_NODE": 49.3764,
    "ARG_OF_PERICENTER": 81.0844,
    "MEAN_ANOMALY": 279.0274,
    "EPHEMERIS_TYPE": 0,
    "CLASSIFICATION_TYPE": "U",
    "NORAD_CAT_ID": 63705,
    "ELEMENT_SET_NO": 999,
    "REV_AT_EPOCH": 3106,
    "BSTAR": 0.0015317,
    "MEAN_MOTION_DOT": 0.00045333,
    "MEAN_MOTION_DDOT": 0.0,
    "TLE_LINE1": "1 63705U 25087J   25315.28600710  .00045333  00000+0  15317-2 0  9999",
    "TLE_LINE2": "2 63705  53.1582  49.3764 0001031  81.0844 279.0274 15.30236593 31068",
    "COMMENT": "Grouped by shell and plane from TLE"
  },
  {
    "OBJECT_NAME": "STARLINK-33995",
    "OBJECT_ID": "25087K",
    "EPOCH": "2025-11-11T06:18:34.971264",
    "MEAN_MOTION": 15.30232968,
    "ECCENTRICITY": 0.0001276,
    "INCLINATION": 53.159,
    "RA_OF_ASC_NODE": 49.9403,
    "ARG_OF_PERICENTER": 96.058,
    "MEAN_ANOMALY": 264.0566,
    "EPHEMERIS_TYPE": 0,
    "CLASSIFICATION_TYPE": "U",
    "NORAD_CAT_ID": 63706,
    "ELEMENT_SET_NO": 999,
    "REV_AT_EPOCH": 3106,
    "BSTAR": 0.0016539,
    "MEAN_MOTION_DOT": 0.00048997,
    "MEAN_MOTION_DDOT": 0.0,
    "TLE_LINE1": "1 63706U 25087K   25315.26290476  .00048997  00000+0  16539-2 0  9998",
    "TLE_LINE2": "2 63706  53.1590  49.9403 0001276  96.0580 264.0566 15.30232968 31068",
    "COMMENT": "Grouped by shell and plane from TLE"
  },
  {
    "OBJECT_NAME": "STARLINK-33982",
    "OBJECT_ID": "25087L",
    "EPOCH": "2025-11-11T07:00:59.135040",
    "MEAN_MOTION": 15.30177936,
    "ECCENTRICITY": 0.0002001,
    "INCLINATION": 53.1577,
    "RA_OF_ASC_NODE": 49.4122,
    "ARG_OF_PERICENTER": 309.1062,
    "MEAN_ANOMALY": 50.9761,
    "EPHEMERIS_TYPE": 0,
    "CLASSIFICATION_TYPE": "U",
    "NORAD_CAT_ID": 63707,
    "ELEMENT_SET_NO": 999,
    "REV_AT_EPOCH": 3107,
    "BSTAR": 0.0018513,
    "MEAN_MOTION_DOT": 0.00054839,
    "MEAN_MOTION_DDOT": 0.0,
    "TLE_LINE1": "1 63707U 25087L   25315.29235110  .00054839  00000+0  18513-2 0  9992",
    "TLE_LINE2": "2 63707  53.1577  49.4122 0002001 309.1062  50.9761 15.30177936 31070",
    "COMMENT": "Grouped by shell and plane from TLE"
  },
  {
    "OBJECT_NAME": "STARLINK-33915",
    "OBJECT_ID": "25087M",
    "EPOCH": "2025-11-11T05:43:37.817760",
    "MEAN_MOTION": 15.30242159,
    "ECCENTRICITY": 0.0001928,
    "INCLINATION": 53.1602,
    "RA_OF_ASC_NODE": 49.796,
    "ARG_OF_PERICENTER": 77.9653,
    "MEAN_ANOMALY": 282.1564,
    "EPHEMERIS_TYPE": 0,
    "CLASSIFICATION_TYPE": "U",
    "NORAD_CAT_ID": 63708,
    "ELEMENT_SET_NO": 999,
    "REV_AT_EPOCH": 3106,
    "BSTAR": 0.0018507999999999999,
    "MEAN_MOTION_DOT": 0.00054936,
    "MEAN_MOTION_DDOT": 0.0,
    "TLE_LINE1": "1 63708U 25087M   25315.23863215  .00054936  00000+0  18508-2 0  9992",
    "TLE_LINE2": "2 63708  53.1602  49.7960 0001928  77.9653 282.1564 15.30242159 31065",
    "COMMENT": "Grouped by shell and plane from TLE"
  },
  {
    "OBJECT_NAME": "STARLINK-33862",
    "OBJECT_ID": "25087N",
    "EPOCH": "2025-11-11T07:08:33.941184",
    "MEAN_MOTION": 15.30236161,
    "ECCENTRICITY": 0.0002193,
    "INCLINATION": 53.1557,
    "RA_OF_ASC_NODE": 49.4478,
    "ARG_OF_PERICENTER": 101.881,
    "MEAN_ANOMALY": 258.2436,
    "EPHEMERIS_TYPE": 0,
    "CLASSIFICATION_TYPE": "U",
    "NORAD_CAT_ID": 63709,
    "ELEMENT_SET_NO": 999,
    "REV_AT_EPOCH": 3107,
    "BSTAR": 0.0016248000000000002,
    "MEAN_MOTION_DOT": 0.0004813,
    "MEAN_MOTION_DDOT": 0.0,
    "TLE_LINE1": "1 63709U 25087N   25315.29761506  .00048130  00000+0  16248-2 0  9997",
    "TLE_LINE2": "2 63709  53.1557  49.4478 0002193 101.8810 258.2436 15.30236161 31072",
    "COMMENT": "Grouped by shell and plane from TLE"
  },
  {
    "OBJECT_NAME": "STARLINK-33920",
    "OBJECT_ID": "25087P",
    "EPOCH": "2025-11-11T06:07:56.794080",
    "MEAN_MOTION": 15.30234172,
    "ECCENTRICITY": 0.0002314,
    "INCLINATION": 53.1602,
    "RA_OF_ASC_NODE": 49.9,
    "ARG_OF_PERICENTER": 78.2176,
    "MEAN_ANOMALY": 281.9085,
    "EPHEMERIS_TYPE": 0,
    "CLASSIFICATION_TYPE": "U",
    "NORAD_CAT_ID": 63710,
    "ELEMENT_SET_NO": 999,
    "REV_AT_EPOCH": 3106,
    "BSTAR": 0.0013901,
    "MEAN_MOTION_DOT": 0.00041086,
    "MEAN_MOTION_DDOT": 0.0,
    "TLE_LINE1": "1 63710U 25087P   25315.25551845  .00041086  00000+0  13901-2 0  9994",
    "TLE_LINE2": "2 63710  53.1602  49.9000 0002314  78.2176 281.9085 15.30234172 31060",
    "COMMENT": "Grouped by shell and plane from TLE"
  }
]